IRIDIUM 171             
1 43929U 19002H   24058.52044961  .00000033  00000+0  46412-5 0  9996
2 43929  86.4033 345.1262 0002412  86.7106 273.4365 14.34216427268463
IRIDIUM 170             
1 43930U 19002J   24057.86091275  .00001793  00000+0  28030-3 0  9992
2 43930  86.6152 345.2394 0002645  89.9504 270.2016 14.72262909275476
IRIDIUM 167             
1 43931U 19002K   24057.88619164  .00000102  00000+0  29485-4 0  9997
2 43931  86.4025 345.1930 0002265  86.2285 273.9170 14.34217923268379
IRIDIUM 181             
1 56726U 23068S   24057.99268804  .00000651  00000+0  18647-3 0  9999
2 56726  86.8637  33.4460 0002820  96.5340 263.6183 14.43595494 41096
IRIDIUM 177             
1 56727U 23068T   24057.81772323  .00000403  00000+0  49565-4 0  9996
2 56727  86.2015   8.2214 0002749  93.1358 267.0177 14.80223297 41901
IRIDIUM 174             
1 56728U 23068U   24057.87984626  .00002651  00000+0  34530-3 0  9996
2 56728  86.2029   8.2864 0002434  91.7257 268.4243 14.80236575 41914
IRIDIUM 178             
1 56729U 23068V   24057.94203425  .00002578  00000+0  33573-3 0  9990
2 56729  86.5815  20.4375 0002419  89.5909 270.5589 14.80241840 41925
IRIDIUM 179             
1 56730U 23068W   24057.93660214  .00002593  00000+0  33774-3 0  9994
2 56730  86.6820  23.1704 0002436  92.3163 267.8338 14.80236520 41923
